0 IRIDIUM 33 DEB
1 35797U 97051SF  13282.28243360  .00001648  00000-0  48401-3 0  4384
2 35797 086.3523 114.0808 0027739 010.0411 350.1346 14.43030227229109
0 IRIDIUM 33 DEB
1 35797U 97051SF  13285.26414963  .00001807  00000-0  53127-3 0  4393
2 35797 086.3496 112.8022 0027959 359.9375 000.1995 14.43042652229534
0 IRIDIUM 33 DEB
1 35797U 97051SF  13286.30427389  .00001843  00000-0  54173-3 0  4409
2 35797 086.3493 112.3574 0028111 356.5305 003.5751 14.43046976229681
0 IRIDIUM 33 DEB
1 35797U 97051SF  13287.82978303  .00001945  00000-0  57226-3 0  4410
2 35797 086.3507 111.7060 0027806 351.2296 008.8466 14.43054446229908
0 IRIDIUM 33 DEB
1 35797U 97051SF  13289.21660702  .00002049  00000-0  60292-3 0  4420
2 35797 086.3476 111.1088 0028148 346.5656 013.5056 14.43061750230102
0 IRIDIUM 33 DEB
1 35797U 97051SF  13290.25671580  .00002128  00000-0  62672-3 0  4435
2 35797 086.3502 110.6588 0026116 343.5480 016.5213 14.43067422230252
0 IRIDIUM 33 DEB
1 35797U 97051SF  13291.22747867  .00002336  00000-0  68860-3 0  4442
2 35797 086.3489 110.2342 0025445 339.4013 020.6554 14.43074495230397
0 IRIDIUM 33 DEB
1 35797U 97051SF  13292.26757605  .00002354  00000-0  69388-3 0  4455
2 35797 086.3488 109.7851 0025872 335.5558 024.4469 14.43079673230546
0 IRIDIUM 33 DEB
1 35797U 97051SF  13293.79305279  .00002536  00000-0  74733-3 0  4463
2 35797 086.3456 109.1317 0027021 331.3955 028.5815 14.43089646230760
0 IRIDIUM 33 DEB
1 35797U 97051SF  13295.17984282  .00002644  00000-0  77929-3 0  4475
2 35797 086.3452 108.5390 0027671 328.8091 031.1431 14.43098137230964
0 IRIDIUM 33 DEB
1 35797U 97051SF  13296.21993073  .00002681  00000-0  79033-3 0  4489
2 35797 086.3437 108.0927 0026381 323.5587 036.4040 14.43104195231111
